[{"OBJECT_NAME":"STARLETTE","OBJECT_ID":"1975-010A","EPOCH":"2026-03-04T02:56:34.057824","MEAN_MOTION":13.82349061,"ECCENTRICITY":0.0205546,"INCLINATION":49.8226,"RA_OF_ASC_NODE":159.3051,"ARG_OF_PERICENTER":75.9523,"MEAN_ANOMALY":286.4125,"EPHEMERIS_TYPE":0,"CLASSIFICATION_TYPE":"U","NORAD_CAT_ID":7646,"ELEMENT_SET_NO":999,"REV_AT_EPOCH":58000,"BSTAR":9.2076e-6,"MEAN_MOTION_DOT":-1.34e-6,"MEAN_MOTION_DDOT":0},{"OBJECT_NAME":"LAGEOS 1","OBJECT_ID":"1976-039A","EPOCH":"2026-03-04T04:00:28.010304","MEAN_MOTION":6.38664875,"ECCENTRICITY":0.0044659,"INCLINATION":109.8184,"RA_OF_ASC_NODE":143.3909,"ARG_OF_PERICENTER":324.7708,"MEAN_ANOMALY":54.3603,"EPHEMERIS_TYPE":0,"CLASSIFICATION_TYPE":"U","NORAD_CAT_ID":8820,"ELEMENT_SET_NO":999,"REV_AT_EPOCH":90643,"BSTAR":0,"MEAN_MOTION_DOT":-1.0e-8,"MEAN_MOTION_DDOT":0},{"OBJECT_NAME":"AJISAI (EGS)","OBJECT_ID":"1986-061A","EPOCH":"2026-03-04T04:20:49.250112","MEAN_MOTION":12.44515547,"ECCENTRICITY":0.0011252,"INCLINATION":50.008,"RA_OF_ASC_NODE":110.2871,"ARG_OF_PERICENTER":272.8274,"MEAN_ANOMALY":187.0364,"EPHEMERIS_TYPE":0,"CLASSIFICATION_TYPE":"U","NORAD_CAT_ID":16908,"ELEMENT_SET_NO":999,"REV_AT_EPOCH":46731,"BSTAR":0.00015966,"MEAN_MOTION_DOT":-7.5e-7,"MEAN_MOTION_DDOT":0},{"OBJECT_NAME":"COSMOS 1989 (ETALON 1)","OBJECT_ID":"1989-001C","EPOCH":"2026-03-03T14:49:25.857696","MEAN_MOTION":2.13156033,"ECCENTRICITY":0.0023403,"INCLINATION":64.8836,"RA_OF_ASC_NODE":75.8047,"ARG_OF_PERICENTER":217.5732,"MEAN_ANOMALY":97.6631,"EPHEMERIS_TYPE":0,"CLASSIFICATION_TYPE":"U","NORAD_CAT_ID":19751,"ELEMENT_SET_NO":999,"REV_AT_EPOCH":28911,"BSTAR":0,"MEAN_MOTION_DOT":1.9e-7,"MEAN_MOTION_DDOT":0},{"OBJECT_NAME":"COSMOS 2024 (ETALON 2)","OBJECT_ID":"1989-039C","EPOCH":"2026-03-04T04:30:25.814592","MEAN_MOTION":2.13204552,"ECCENTRICITY":0.0020465,"INCLINATION":64.9977,"RA_OF_ASC_NODE":314.1551,"ARG_OF_PERICENTER":213.4075,"MEAN_ANOMALY":318.7281,"EPHEMERIS_TYPE":0,"CLASSIFICATION_TYPE":"U","NORAD_CAT_ID":20026,"ELEMENT_SET_NO":999,"REV_AT_EPOCH":28626,"BSTAR":0,"MEAN_MOTION_DOT":-4.6e-7,"MEAN_MOTION_DDOT":0},{"OBJECT_NAME":"LAGEOS 2","OBJECT_ID":"1992-070B","EPOCH":"2026-03-04T04:23:27.554784","MEAN_MOTION":6.47293323,"ECCENTRICITY":0.0137776,"INCLINATION":52.6796,"RA_OF_ASC_NODE":333.022,"ARG_OF_PERICENTER":141.4162,"MEAN_ANOMALY":15.2959,"EPHEMERIS_TYPE":0,"CLASSIFICATION_TYPE":"U","NORAD_CAT_ID":22195,"ELEMENT_SET_NO":999,"REV_AT_EPOCH":78862,"BSTAR":0,"MEAN_MOTION_DOT":-9.0e-8,"MEAN_MOTION_DDOT":0},{"OBJECT_NAME":"STELLA","OBJECT_ID":"1993-061B","EPOCH":"2026-03-04T04:24:06.058944","MEAN_MOTION":14.27467403,"ECCENTRICITY":0.0006435,"INCLINATION":98.7853,"RA_OF_ASC_NODE":127.0021,"ARG_OF_PERICENTER":173.057,"MEAN_ANOMALY":206.6071,"EPHEMERIS_TYPE":0,"CLASSIFICATION_TYPE":"U","NORAD_CAT_ID":22824,"ELEMENT_SET_NO":999,"REV_AT_EPOCH":68979,"BSTAR":1.6738e-5,"MEAN_MOTION_DOT":-4.0e-8,"MEAN_MOTION_DDOT":0},{"OBJECT_NAME":"LARETS","OBJECT_ID":"2003-042F","EPOCH":"2026-03-04T03:00:16.462656","MEAN_MOTION":14.63846928,"ECCENTRICITY":0.0012424,"INCLINATION":98.4005,"RA_OF_ASC_NODE":223.1969,"ARG_OF_PERICENTER":9.9044,"MEAN_ANOMALY":350.24,"EPHEMERIS_TYPE":0,"CLASSIFICATION_TYPE":"U","NORAD_CAT_ID":27944,"ELEMENT_SET_NO":999,"REV_AT_EPOCH":19799,"BSTAR":3.3754e-5,"MEAN_MOTION_DOT":1.26e-6,"MEAN_MOTION_DDOT":0},{"OBJECT_NAME":"LARES","OBJECT_ID":"2012-006A","EPOCH":"2026-03-04T03:56:32.172864","MEAN_MOTION":12.54932251,"ECCENTRICITY":0.0007563,"INCLINATION":69.4891,"RA_OF_ASC_NODE":111.638,"ARG_OF_PERICENTER":156.3088,"MEAN_ANOMALY":203.8288,"EPHEMERIS_TYPE":0,"CLASSIFICATION_TYPE":"U","NORAD_CAT_ID":38077,"ELEMENT_SET_NO":999,"REV_AT_EPOCH":64389,"BSTAR":0.00015739,"MEAN_MOTION_DOT":-1.3e-7,"MEAN_MOTION_DDOT":0},{"OBJECT_NAME":"LARES-2","OBJECT_ID":"2022-080A","EPOCH":"2026-02-20T17:16:46.407648","MEAN_MOTION":6.38965205,"ECCENTRICITY":0.00051588,"INCLINATION":70.178,"RA_OF_ASC_NODE":345.2672,"ARG_OF_PERICENTER":0.959,"MEAN_ANOMALY":359.1035,"EPHEMERIS_TYPE":0,"CLASSIFICATION_TYPE":"U","NORAD_CAT_ID":53105,"ELEMENT_SET_NO":999,"REV_AT_EPOCH":8422,"BSTAR":0,"MEAN_MOTION_DOT":-1.9e-7,"MEAN_MOTION_DDOT":0}]
